{
    "type": "FeatureCollection",
    "features": [
      {
        "type": "Feature",
        "geometry": {
          "type": "Point",
          "coordinates": [8.727488508968516, 53.02883996016038]
        },
        "properties": {
          "name": "Berta",
          "destination": "Rathaus Stuhr",
          "destinationStation": "Bf Stuhr",
          "homeStation": "Hespenstraße",
          "startTimer": 10000,
          "returnTimer": 20000,
          "info": "Auch wenn sie lange in Bonn gelebt hat: Mit ihrem Wellensittich ist Berta in Stuhr bekannt wie ein bunter Hund. Den hat sie nämlich immer dabei, wenn sie unterwegs ist. Ein Auto hat die alleinstehende Sozialpädagogin aus Überzeugung seit Jahrzehnten nicht mehr. Mit dem Rad aber sind ihr die meisten Strecken mittlerweile allerdings zu weit. Die Bahn kommt da gerade recht."
        }
      },
      {
        "type": "Feature",
        "geometry": {
          "type": "Point",
          "coordinates": [8.74032759702164, 53.03148012380614]
        },
        "properties": {
          "name": "Dorothea",
          "destination": "Famila",
          "destinationStation": "Bf Leeste",
          "homeStation": "Beethovenstraße",
          "startTimer": 6000,
          "returnTimer": 30000,
          "info": "Witwe Dorothea fährt nie allein. Immer hat sie ihren Yorkshire Terrier dabei, egal, wohin es geht. Früher hat ihr Mann sie und die zwei gemeinsamen Töchter mit dem Auto zu jedem gewünschten Ziel gefahren. Nach seinem Tod ist die ehemalige Sekretärin auf die Bahn umgestiegen – mit ihren 75 Jahren möchte sie sich nicht wieder selbst hinters Steuer setzen."
        }
      },
      {
        "type": "Feature",
        "geometry": {
          "type": "Point",
          "coordinates": [8.728477220921802, 53.03623659384103]
        },
        "properties": {
          "name": "Merit",
          "destination": "KGS Stuhr-Brinkum",
          "destinationStation": "Bassumer Straße",
          "homeStation": "Dovemoorstraße",
          "startTimer": 0,
          "returnTimer": 10000,
          "info": "Tik Toks und Videos sind ihr größtes Hobby – und ihr Traum. Später will sie Influencerin werden. Reisen, berühmt sein. Jetzt ist aber schon mal gut, dass sie nichtmehr von Mama oder Papa überall hingefahren werden muss. Dafür ist sie echt auch zu alt. Peinlich ist das, wenn sie mit den Freundinnen shoppen will und die Eltern sind immer irgendwie dabei. Ehrlich, geht gar nicht. Da lieber Bahn fahren."
        }
      },
      {
        "type": "Feature",
        "geometry": {
          "type": "Point",
          "coordinates": [8.767089823022214, 53.01853926917435]
        },
        "properties": {
          "name": "Natascha",
          "destination": "KGS Stuhr-Brinkum",
          "destinationStation": "Bassumer Straße",
          "homeStation": "Stuhrbaum",
          "startTimer": 5000,
          "returnTimer": 10000,
          "info": "Pferde sind ihr Hobby – jetzt sag keiner: Typisch Mädchen. Dass kann Natascha nicht leiden. Reittherapeutin ist ein echter Beruf. Gerade macht sie ein Praktikum auf dem Hof, denkt an ihre Zukunft – und Fin, den findet sie nämlich echt süß. Für ihre Eltern ist sie noch »die Kleine«. Das nervt zwar, dass sie sich Sorgen machen, ist aber okay. Und wenn sie die Bahn nimmt, darf sie jetzt auch mal später heimkommen."
        }
      },
      {
        "type": "Feature",
        "geometry": {
          "type": "Point",
          "coordinates": [8.83382218013945, 52.997804171325136]
        },
        "properties": {
          "name": "Finn",
          "destination": "KGS Stuhr-Brinkum",
          "destinationStation": "Bassumer Straße",
          "homeStation": "Hagener Straße",
          "startTimer": 20000,
          "returnTimer": 3000,
          "info": "Fin ist gerade 15 Jahre alt geworden - und hat das gebührend gefeiert. Zusammen mit seinen Freunden ist er unterwegs gewesen bis – naja, länger als eigentlich erlaubt. Aber mit der Bahn war er schnell zuhause. Früher musste er immer rumkutschiert werden - zum Handball-Training nach Stuhr, zu seinen Freunden und so. Jetzt fährt er Bahn und ist völlig unabhängig. Das ist richtig toll!"
        }
      },
      {
        "type": "Feature",
        "geometry": {
          "type": "Point",
          "coordinates": [8.812082689140118, 52.99244807193893]
        },
        "properties": {
          "name": "Holger",
          "destination": "Discgolf Anlage",
          "destinationStation": "Studtriede",
          "homeStation": "Bf Leeste",
          "startTimer": 0,
          "returnTimer": 3000,
          "info": "Holger"
        }
      }
    ]
}