{
    "type": "FeatureCollection",
    "features": [
      {
        "type": "Feature",
        "geometry": {
          "type": "Point",
          "coordinates": [8.729111805193584, 53.03826596766262]
        },
        "properties": {
          "name": "Friedhof Huchting",
          "info": "Lorem ipsum dolor sit amet, consectetur adipiscing elit, sed do eiusmod tempor incididunt ut labore et dolore magna aliqua."
        }
      },
      {
        "type": "Feature",
        "geometry": {
          "type": "Point",
          "coordinates": [8.751063349933256, 53.02689850158786]
        },
        "properties": {
          "name": "Rathaus Stuhr",
          "info": "Lorem ipsum dolor sit amet, consectetur adipiscing elit, sed do eiusmod tempor incididunt ut labore et dolore magna aliqua."
        }
      },
      {
        "type": "Feature",
        "geometry": {
          "type": "Point",
          "coordinates": [8.797241466903529, 52.99732949706448]
        },
        "properties": {
          "name": "Ortsfeuerwehr Erichshof",
          "info": "Lorem ipsum dolor sit amet, consectetur adipiscing elit, sed do eiusmod tempor incididunt ut labore et dolore magna aliqua."
        }
      },
      {
        "type": "Feature",
        "geometry": {
          "type": "Point",
          "coordinates": [8.779791663902396, 53.00507142422645]
        },
        "properties": {
          "name": "Jugendtreff Haus am Wall",
          "info": "Lorem ipsum dolor sit amet, consectetur adipiscing elit, sed do eiusmod tempor incididunt ut labore et dolore magna aliqua."
        }
      },
      {
        "type": "Feature",
        "geometry": {
          "type": "Point",
          "coordinates": [8.818663148468213, 52.992340621645305]
        },
        "properties": {
          "name": "KGS-Leeste",
          "info": "Lorem ipsum dolor sit amet, consectetur adipiscing elit, sed do eiusmod tempor incididunt ut labore et dolore magna aliqua."
        }
      },
      {
        "type": "Feature",
        "geometry": {
          "type": "Point",
          "coordinates": [8.785130033427333, 53.01140349888176]
        },
        "properties": {
          "name": "Grundschule Brinkum",
          "info": "Lorem ipsum dolor sit amet, consectetur adipiscing elit, sed do eiusmod tempor incididunt ut labore et dolore magna aliqua."
        }
      }
    ]
}