{
    "type": "FeatureCollection",
    "features": [
      {
        "type": "Feature",
        "geometry": {
          "type": "LineString",
          "coordinates": [
            [8.725587814811306, 53.03861305149076],
            [8.72595590543374, 53.0350401060421],
            [8.729351092739437, 53.032212218810244],
            [8.738753072349676, 53.02940126579498],
            [8.747607592348695, 53.026581635632986],
            [8.768807320860198, 53.01938559330482],
            [8.782767603929921, 53.01428183385314],
            [8.785025308981856, 53.00845974436069],
            [8.786343992046682, 53.00502511918821],
            [8.789672677709683, 53.002096375090225],
            [8.794976247425602, 53.00119968005784],
            [8.796147287503622, 53.00070870095848],
            [8.800123678098426, 52.998369223317454],
            [8.80346104596483, 52.996376681103975],
            [8.806775698269286, 52.99556390527655],
            [8.810986529464317, 52.995352249365936],
            [8.816503572799816, 52.9944576383352],
            [8.823435327366441, 52.99451724492756],
            [8.827590574221093, 52.99481587851374]
          ]
        },
        "properties": {
          "name": "Linie 8"
        }
      }
    ]
  }